satname,norad_id,inclination_deg,eccentricity,mean_motion_rev_per_day,perigee_km,apogee_km,l1,l2
STARLINK-1296,45412,53.1564,0.00044,15.35248652,457.17316924332135,463.1908899893833,1 45412U 20019BE  26123.73399712  .00048541  00000+0  14000-2 0  9991,2 45412  53.1564 232.6341 0004400 317.2345  42.8316 15.35248652338410
STARLINK-1309,45414,53.0627,0.0005487,15.65033072,369.4392188260572,376.8480742075444,1 45414U 20019BG  26123.65325624  .00050593  00000+0  50709-3 0  9992,2 45414  53.0627 215.8925 0005487 293.9571  66.0869 15.65033072338613
STARLINK-1316,45415,53.1574,0.0004834,15.35543818,456.0004627724984,462.610902358002,1 45415U 20019BH  26123.77507528  .00050962  00000+0  14549-2 0  9992,2 45415  53.1574 232.4495 0004834 318.4597  41.6039 15.35543818338449
STARLINK-1286,45417,53.0467,0.0002476,15.55460868,399.1348056763072,402.4917418518762,1 45417U 20019BK  26123.56130478  .00049215  00000+0  71146-3 0  9993,2 45417  53.0467 226.1759 0002476 288.0776  71.9964 15.55460868338757
STARLINK-1308,45419,53.0498,0.0006279,15.60872561,380.88870508232503,389.3820225167856,1 45419U 20019BM  26123.73709255  .00114763  00000+0  13343-2 0  9994,2 45419  53.0498 245.6886 0006279 278.2639  81.7661 15.60872561338244
STARLINK-1329,45531,53.0422,0.0004683,15.69090408,358.34419678803624,364.65654114781137,1 45531U 20025A   26123.82938032  .00055812  00000+0  47413-3 0  9998,2 45531  53.0422 170.8628 0004683  24.5358 335.5880 15.69090408334088
STARLINK-1338,45532,53.0444,0.000389,15.6459634,371.7731924252721,377.0266661562591,1 45532U 20025B   26123.42640723  .00057624  00000+0  58654-3 0  9994,2 45532  53.0444 178.2285 0003890 358.4928   1.6074 15.64596340333946
STARLINK-1350,45535,53.0704,0.0001187,15.3744235,452.8647133610302,454.4865856840279,1 45535U 20025E   26123.54827153  .00010343  00000+0  28770-3 0  9997,2 45535  53.0704 135.2294 0001187  51.5128 308.5981 15.37442350334590
STARLINK-1362,45538,53.1586,0.0002499,15.33917443,462.427992805392,465.84776178906486,1 45538U 20025H   26123.52819764 -.00126276  00000+0 -38472-2 0  9991,2 45538  53.1586 205.6573 0002499  46.3324 313.7886 15.33917443333587
STARLINK-1368,45540,53.1585,0.0003177,15.34403248,460.52025460632376,464.86691836097634,1 45540U 20025K   26123.60712285  .00053029  00000+0  15692-2 0  9995,2 45540  53.1585 205.6603 0003177   9.0454 351.0605 15.34403248333585
STARLINK-1371,45542,53.0464,0.0006363,15.56407884,393.75147348496284,402.3748658208642,1 45542U 20025M   26123.36583532  .00102567  00000+0  14141-2 0  9991,2 45542  53.0464 186.3804 0006363 356.6260   3.4707 15.56407884333828
STARLINK-1372,45543,53.1581,0.0003107,15.34820745,459.3279224792741,463.57804369476344,1 45543U 20025N   26123.44749509  .00055517  00000+0  16202-2 0  9991,2 45543  53.1581 206.0373 0003107   3.7639 356.3387 15.34820745332660
STARLINK-1373,45544,53.0445,0.0003357,15.66344483,367.10967233361407,371.63995176422304,1 45544U 20025P   26123.91668980 -.00034626  00000+0 -32386-3 0  9999,2 45544  53.0445 181.5110 0003357 330.2580 307.4217 15.66344483  5981
STARLINK-1327,45555,53.0412,0.0004947,15.63412793,374.46523936105496,381.1495707554195,1 45555U 20025AA  26123.28113875  .00124235  00000+0  13073-2 0  9994,2 45555  53.0412 161.1897 0004947 333.8892  26.1872 15.63412793334168
STARLINK-1356,45564,53.0458,0.0003821,15.5329318,404.5260409641114,409.71133336024104,1 45564U 20025AK  26123.82664892  .00076017  00000+0  11810-2 0  9995,2 45564  53.0458 169.6202 0003821 340.4255  19.6607 15.53293180334099
STARLINK-1357,45565,53.0446,0.0007913,15.65722123,365.8220215735537,376.5034633459709,1 45565U 20025AL  26123.50857403  .00053656  00000+0  52230-3 0  9999,2 45565  53.0446 130.4602 0007913  13.6814 346.4414 15.65722123334626
STARLINK-1361,45567,53.0446,0.0001964,15.56713709,395.8449879038135,398.50633071639095,1 45567U 20025AN  26123.60939412  .00088982  00000+0  12167-2 0  9997,2 45567  53.0446 169.4641 0001964 332.6573  27.4334 15.56713709334086
STARLINK-1363,45568,53.032,0.0002947,15.95385915,285.2750038705517,289.20357665603206,1 45568U 20025AP  26123.83335647  .00336249  55874-4  83476-3 0  9991,2 45568  53.0320 118.9364 0002947  57.8346  72.6359 15.95385915  6054
STARLINK-1366,45569,53.0332,0.0003144,15.91538488,295.8780339502291,300.07597443606574,1 45569U 20025AQ  26123.91668980  .00286602  41816-4  87337-3 0  9998,2 45569  53.0332 120.0701 0003144  37.7261 107.1335 15.91538488  6026
STARLINK-1376,45570,53.1574,0.0005068,15.35192924,456.8817734577069,463.8132613645539,1 45570U 20025AR  26123.43207648  .00050054  00000+0  14454-2 0  9991,2 45570  53.1574 182.5966 0005068   1.0222 359.0790 15.35192924333891
STARLINK-1320,45572,53.0452,0.0003488,15.78497075,332.35678807184104,337.0396619247995,1 45572U 20025AT  26123.83335647  .00109589  00000+0  61441-3 0  9995,2 45572  53.0452  71.6687 0003488 163.0228 316.0143 15.78497075  6012
STARLINK-1321,45573,53.0428,0.0005491,15.57971744,389.80954926017057,397.24619162088766,1 45573U 20025AU  26123.51527489  .00095965  00000+0  12498-2 0  9997,2 45573  53.0428 154.1050 0005491   4.0066 356.0989 15.57971744333985
STARLINK-1331,45578,53.0472,0.000702,15.57482675,390.1906839519397,399.7000916243942,1 45578U 20025AZ  26123.59575506  .00085580  00000+0  11369-2 0  9991,2 45578  53.0472 160.5166 0007020 347.1616  12.9215 15.57482675334217
STARLINK-1333,45580,53.1578,0.0003073,15.32247519,467.0041971058363,471.2125141013912,1 45580U 20025BB  26123.41063226  .00043547  00000+0  13829-2 0  9996,2 45580  53.1578 183.4558 0003073  30.3492 329.7688 15.32247519333888
STARLINK-1335,45581,53.1547,0.0004128,15.33863039,461.4751091674043,467.1242248796998,1 45581U 20025BC  26123.86712117  .00048665  00000+0  14666-2 0  9992,2 45581  53.1547 178.4450 0004128  18.1050 342.0099 15.33863039333983
STARLINK-1337,45582,53.0465,0.0007674,15.69316453,355.6816655808989,366.02466768864997,1 45582U 20025BD  26123.59178159  .00118083  00000+0  98011-3 0  9994,2 45582  53.0465 152.9125 0007674 356.4994   3.5967 15.69316453334304
STARLINK-1347,45586,53.038,0.0005155,15.64953165,369.89305592567507,376.85386320948874,1 45586U 20025BH  26123.27218888  .00056763  00000+0  56966-3 0  9996,2 45586  53.0380 123.6425 0005155  28.3766 331.7528 15.64953165334688
STARLINK-1364,45589,53.0446,0.0005163,15.59076754,386.833280756312,393.8223975492201,1 45589U 20025BL  26123.27530553  .00101850  00000+0  12711-2 0  9992,2 45589  53.0446 159.5245 0005163 328.6417  31.4287 15.59076754334185
STARLINK-1365,45590,53.0466,0.000481,15.5387774,402.1539745480022,408.6797533651279,1 45590U 20025BM  26123.61619517  .00053734  00000+0  82164-3 0  9997,2 45590  53.0466 190.1067 0004810 330.2832  29.7904 15.53877740333802
STARLINK-1443,45660,53.1322,0.0003761,15.29876535,473.60313875164593,478.75895678717734,1 45660U 20035D   26123.41182807  .00052424  00000+0  17871-2 0  9998,2 45660  53.1322 171.6033 0003761 350.0632  10.0293 15.29876535327127
STARLINK-1446,45663,53.023,0.0004449,15.45585682,426.62891709485757,432.686492823329,1 45663U 20035G   26123.63266995  .00038169  00000+0  78567-3 0  9996,2 45663  53.0230  97.8950 0004449  72.0882 288.0609 15.45585682328167
STARLINK-1448,45665,53.0435,0.0007175,15.64346451,370.27354998258943,379.9644723586189,1 45665U 20035J   26123.91668980  .00168428  00000+0  16962-2 0  9991,2 45665  53.0435 144.3878 0007175 349.4939 266.8210 15.64346451  5845
STARLINK-1451,45668,53.0511,0.000201,15.1275024,526.4290054660532,529.205199015154,1 45668U 20035M   26123.43132113  .00032052  00000+0  18160-2 0  9990,2 45668  53.0511 178.3728 0002010  20.6527 339.4546 15.12750240327022
STARLINK-1452,45669,53.0267,0.0001481,15.53058464,406.79731608328893,408.8073113080063,1 45669U 20035N   26123.38957221  .00100462  00000+0  15672-2 0  9996,2 45669  53.0267 119.4798 0001481  10.3148 349.7891 15.53058464327841
STARLINK-1453,45670,53.0402,0.0003493,15.64692623,371.7643515251366,376.48148030239463,1 45670U 20035P   26123.84755895  .00075064  00000+0  75791-3 0  9990,2 45670  53.0402 105.1306 0003493  69.9859 290.1531 15.64692623327972
STARLINK-1454,45671,53.0438,0.0004658,15.61585656,379.9268773040385,386.2256235681434,1 45671U 20035Q   26123.83335647  .00114629  00000+0  12971-2 0  9990,2 45671  53.0438 145.5971 0004658 337.0179 355.5562 15.61585656  5838
STARLINK-1456,45673,53.0441,0.0007933,15.59739272,383.0431430215531,393.77894815067975,1 45673U 20035S   26123.32146831  .00119492  00000+0  14490-2 0  9992,2 45673  53.0441 142.2669 0007933  19.2743 340.8568 15.59739272327525
STARLINK-1457,45674,53.0359,0.0002866,16.02430333,265.78588717862294,269.59527554826036,1 45674U 20035T   26123.84470046  .00447117  10022-3  74390-3 0  9991,2 45674  53.0359 102.1387 0002866  54.9399 305.1899 16.02430333328098
STARLINK-1458,45675,53.0467,0.0006339,15.51180175,408.9740903757711,417.58424779493635,1 45675U 20035U   26123.26915737  .00093469  00000+0  15606-2 0  9991,2 45675  53.0467 154.7914 0006339 342.0885  17.9899 15.51180175327308
STARLINK-1460,45676,53.1571,0.0003879,15.32245211,466.45918240261017,471.7712806838408,1 45676U 20035V   26123.83926178  .00035675  00000+0  11362-2 0  9996,2 45676  53.1571 168.6074 0003879  30.9389 329.1840 15.32245211327165
STARLINK-1392,45677,53.1525,0.0002455,15.35173716,458.7256971405095,462.08342104602434,1 45677U 20035W   26123.40851022  .00057755  00000+0  16658-2 0  9991,2 45677  53.1525 170.0591 0002455  35.0570 325.0594 15.35173716327145
STARLINK-1394,45679,53.0418,0.0008714,15.59674148,382.7028677559356,394.4959359570921,1 45679U 20035Y   26123.51126450  .00080885  00000+0  98967-3 0  9999,2 45679  53.0418 131.5685 0008714  27.3396 332.8073 15.59674148327685
STARLINK-1402,45685,53.0422,0.000814,15.53365244,401.38580303153594,412.4318576433252,1 45685U 20035AE  26123.68286848  .00091923  00000+0  14187-2 0  9998,2 45685  53.0422 119.7882 0008140  48.8871 311.2840 15.53365244327875
